10684,NAVSTAR 1 (OPS 5111),1978,727.01,-1.0,-,64.01,Inactive,0,MEO,USA,USA,Unknown,Unknown,Unknown,1 10684U 78020A   25067.93724230  .00000018  00000+0  00000+0 0  9993,2 10684  64.0097  66.3075 0080463 217.5412 141.9175  1.98072331327225,1.98072331,0.0080463,MEO
10893,NAVSTAR 2 (OPS 5112),1978,714.19,-1.0,-,62.98,Inactive,0,MEO,USA,USA,Unknown,Unknown,Unknown,1 10893U 78047A   25068.69594228  .00000025  00000+0  00000+0 0  9998,2 10893  62.9829 287.4946 0532191  43.1198 131.5685  2.01627204344369,2.01627204,0.0532191,MEO
11054,NAVSTAR 3 (OPS 5113),1978,744.17,-1.0,-,63.28,Inactive,0,MEO,USA,USA,Unknown,Unknown,Unknown,1 11054U 78093A   25067.46812874 -.00000047  00000+0  00000+0 0  9998,2 11054  63.2791 314.0318 0098726 228.8708 318.7880  1.93504599331667,1.93504599,0.0098726,MEO
11141,NAVSTAR 4 (OPS 5114),1978,746.52,-1.0,-,63.4,Inactive,0,MEO,USA,USA,Unknown,Unknown,Unknown,1 11141U 78112A   25067.25881145  .00000030  00000+0  00000+0 0  9992,2 11141  63.3966  85.5317 0139469  48.2132 128.5541  1.92895556220105,1.92895556,0.0139469,MEO
19802,NAVSTAR 13 (USA 35),1989,777.01,-1.0,-,54.74,Inactive,0,MEO,USA,USA,Unknown,Unknown,Unknown,1 19802U 89013A   25067.56936259 -.00000006  00000+0  00000+0 0  9991,2 19802  54.7386 110.3348 0042746 239.7591 176.6936  1.85325383249645,1.85325383,0.0042746,MEO
11690,NAVSTAR 5 (OPS 5117),1980,717.92,-1.0,-,64.45,Inactive,0,MEO,USA,USA,Unknown,Unknown,Unknown,1 11690U 80011A   25067.33237874  .00000013  00000+0  00000+0 0  9996,2 11690  64.4550  62.8475 0481559 204.8091 254.5013  2.00580417344380,2.00580417,0.0481559,MEO
11783,NAVSTAR 6 (OPS 5118),1980,707.77,-1.0,-,62.06,Inactive,0,MEO,USA,USA,Unknown,Unknown,Unknown,1 11783U 80032A   25067.31577521  .00000063  00000+0  00000+0 0  9991,2 11783  62.0576 264.2943 0543623  53.2473 154.8916  2.03456279332274,2.03456279,0.0543623,MEO
20061,NAVSTAR 14 (USA 38),1989,762.48,-1.0,-,53.57,Inactive,0,MEO,USA,USA,Unknown,Unknown,Unknown,1 20061U 89044A   25069.21650786  .00000023  00000+0  00000+0 0  9994,2 20061  53.5718 256.5761 0024561 198.7196 299.1240  1.88858502253025,1.88858502,0.0024561,MEO
20185,NAVSTAR 15 (USA 42),1989,773.83,-1.0,-,54.65,Inactive,0,MEO,USA,USA,Unknown,Unknown,Unknown,1 20185U 89064A   25065.39610252 -.00000012  00000+0  00000+0 0  9991,2 20185  54.6502 105.3510 0012452 310.5644  40.1446  1.86087986247490,1.86087986,0.0012452,MEO
15039,NAVSTAR 9 (USA 1),1984,748.82,-1.0,-,63.24,Inactive,0,MEO,USA,USA,Unknown,Unknown,Unknown,1 15039U 84059A   25067.59240652  .00000028  00000+0  00000+0 0  9995,2 15039  63.2439  77.7326 0233996  51.7221  45.1123  1.92302709289175,1.92302709,0.0233996,MEO
15271,NAVSTAR 10 (USA 5),1984,747.59,-1.0,-,62.51,Inactive,0,MEO,USA,USA,Unknown,Unknown,Unknown,1 15271U 84097A   25067.26738434 -.00000024  00000+0  00000+0 0  9996,2 15271  62.5063 304.9882 0145038 227.6937 339.2769  1.92618871287347,1.92618871,0.0145038,MEO
16129,NAVSTAR 11 (USA 10),1985,760.42,-1.0,-,63.3,Inactive,0,MEO,USA,USA,Unknown,Unknown,Unknown,1 16129U 85093A   25067.59395941  .00000031  00000+0  00000+0 0  9991,2 16129  63.3005  97.4813 0326115  54.1093  27.2842  1.89368869220489,1.89368869,0.0326115,MEO
