[
    {
        "OBJECT_NAME": "NAVSTAR 1 (OPS 5111)",
        "OBJECT_ID": "1978-020A",
        "EPOCH": "2025-03-08T22:29:37.734720",
        "MEAN_MOTION": 1.98072331,
        "ECCENTRICITY": 0.0080463,
        "INCLINATION": 64.0097,
        "RA_OF_ASC_NODE": 66.3075,
        "ARG_OF_PERICENTER": 217.5412,
        "MEAN_ANOMALY": 141.9175,
        "EPHEMERIS_TYPE": 0,
        "CLASSIFICATION_TYPE": "U",
        "NORAD_CAT_ID": 10684,
        "ELEMENT_SET_NO": 999,
        "REV_AT_EPOCH": 32722,
        "BSTAR": 0,
        "MEAN_MOTION_DOT": 1.8e-07,
        "MEAN_MOTION_DDOT": 0
    },
    {
        "OBJECT_NAME": "NAVSTAR 2 (OPS 5112)",
        "OBJECT_ID": "1978-047A",
        "EPOCH": "2025-03-09T16:42:09.412992",
        "MEAN_MOTION": 2.01627204,
        "ECCENTRICITY": 0.0532191,
        "INCLINATION": 62.9829,
        "RA_OF_ASC_NODE": 287.4946,
        "ARG_OF_PERICENTER": 43.1198,
        "MEAN_ANOMALY": 131.5685,
        "EPHEMERIS_TYPE": 0,
        "CLASSIFICATION_TYPE": "U",
        "NORAD_CAT_ID": 10893,
        "ELEMENT_SET_NO": 999,
        "REV_AT_EPOCH": 34436,
        "BSTAR": 0,
        "MEAN_MOTION_DOT": 2.5e-07,
        "MEAN_MOTION_DDOT": 0
    },
    {
        "OBJECT_NAME": "NAVSTAR 3 (OPS 5113)",
        "OBJECT_ID": "1978-093A",
        "EPOCH": "2025-03-08T11:14:06.323136",
        "MEAN_MOTION": 1.93504599,
        "ECCENTRICITY": 0.0098726,
        "INCLINATION": 63.2791,
        "RA_OF_ASC_NODE": 314.0318,
        "ARG_OF_PERICENTER": 228.8708,
        "MEAN_ANOMALY": 318.788,
        "EPHEMERIS_TYPE": 0,
        "CLASSIFICATION_TYPE": "U",
        "NORAD_CAT_ID": 11054,
        "ELEMENT_SET_NO": 999,
        "REV_AT_EPOCH": 33166,
        "BSTAR": 0,
        "MEAN_MOTION_DOT": -4.7e-07,
        "MEAN_MOTION_DDOT": 0
    },
    {
        "OBJECT_NAME": "NAVSTAR 4 (OPS 5114)",
        "OBJECT_ID": "1978-112A",
        "EPOCH": "2025-03-08T06:12:41.309280",
        "MEAN_MOTION": 1.92895556,
        "ECCENTRICITY": 0.0139469,
        "INCLINATION": 63.3966,
        "RA_OF_ASC_NODE": 85.5317,
        "ARG_OF_PERICENTER": 48.2132,
        "MEAN_ANOMALY": 128.5541,
        "EPHEMERIS_TYPE": 0,
        "CLASSIFICATION_TYPE": "U",
        "NORAD_CAT_ID": 11141,
        "ELEMENT_SET_NO": 999,
        "REV_AT_EPOCH": 22010,
        "BSTAR": 0,
        "MEAN_MOTION_DOT": 3e-07,
        "MEAN_MOTION_DDOT": 0
    },
    {
        "OBJECT_NAME": "NAVSTAR 5 (OPS 5117)",
        "OBJECT_ID": "1980-011A",
        "EPOCH": "2025-03-08T07:58:37.523136",
        "MEAN_MOTION": 2.00580417,
        "ECCENTRICITY": 0.0481559,
        "INCLINATION": 64.455,
        "RA_OF_ASC_NODE": 62.8475,
        "ARG_OF_PERICENTER": 204.8091,
        "MEAN_ANOMALY": 254.5013,
        "EPHEMERIS_TYPE": 0,
        "CLASSIFICATION_TYPE": "U",
        "NORAD_CAT_ID": 11690,
        "ELEMENT_SET_NO": 999,
        "REV_AT_EPOCH": 34438,
        "BSTAR": 0,
        "MEAN_MOTION_DOT": 1.3e-07,
        "MEAN_MOTION_DDOT": 0
    },
    {
        "OBJECT_NAME": "NAVSTAR 6 (OPS 5118)",
        "OBJECT_ID": "1980-032A",
        "EPOCH": "2025-03-08T07:34:42.978144",
        "MEAN_MOTION": 2.03456279,
        "ECCENTRICITY": 0.0543623,
        "INCLINATION": 62.0576,
        "RA_OF_ASC_NODE": 264.2943,
        "ARG_OF_PERICENTER": 53.2473,
        "MEAN_ANOMALY": 154.8916,
        "EPHEMERIS_TYPE": 0,
        "CLASSIFICATION_TYPE": "U",
        "NORAD_CAT_ID": 11783,
        "ELEMENT_SET_NO": 999,
        "REV_AT_EPOCH": 33227,
        "BSTAR": 0,
        "MEAN_MOTION_DOT": 6.3e-07,
        "MEAN_MOTION_DDOT": 0
    },
    {
        "OBJECT_NAME": "NAVSTAR 9 (USA 1)",
        "OBJECT_ID": "1984-059A",
        "EPOCH": "2025-03-08T14:13:03.923328",
        "MEAN_MOTION": 1.92302709,
        "ECCENTRICITY": 0.0233996,
        "INCLINATION": 63.2439,
        "RA_OF_ASC_NODE": 77.7326,
        "ARG_OF_PERICENTER": 51.7221,
        "MEAN_ANOMALY": 45.1123,
        "EPHEMERIS_TYPE": 0,
        "CLASSIFICATION_TYPE": "U",
        "NORAD_CAT_ID": 15039,
        "ELEMENT_SET_NO": 999,
        "REV_AT_EPOCH": 28917,
        "BSTAR": 0,
        "MEAN_MOTION_DOT": 2.8e-07,
        "MEAN_MOTION_DDOT": 0
    },
    {
        "OBJECT_NAME": "NAVSTAR 10 (USA 5)",
        "OBJECT_ID": "1984-097A",
        "EPOCH": "2025-03-08T06:25:02.006976",
        "MEAN_MOTION": 1.92618871,
        "ECCENTRICITY": 0.0145038,
        "INCLINATION": 62.5063,
        "RA_OF_ASC_NODE": 304.9882,
        "ARG_OF_PERICENTER": 227.6937,
        "MEAN_ANOMALY": 339.2769,
        "EPHEMERIS_TYPE": 0,
        "CLASSIFICATION_TYPE": "U",
        "NORAD_CAT_ID": 15271,
        "ELEMENT_SET_NO": 999,
        "REV_AT_EPOCH": 28734,
        "BSTAR": 0,
        "MEAN_MOTION_DOT": -2.4e-07,
        "MEAN_MOTION_DDOT": 0
    },
    {
        "OBJECT_NAME": "NAVSTAR 11 (USA 10)",
        "OBJECT_ID": "1985-093A",
        "EPOCH": "2025-03-08T14:15:18.093024",
        "MEAN_MOTION": 1.89368869,
        "ECCENTRICITY": 0.0326115,
        "INCLINATION": 63.3005,
        "RA_OF_ASC_NODE": 97.4813,
        "ARG_OF_PERICENTER": 54.1093,
        "MEAN_ANOMALY": 27.2842,
        "EPHEMERIS_TYPE": 0,
        "CLASSIFICATION_TYPE": "U",
        "NORAD_CAT_ID": 16129,
        "ELEMENT_SET_NO": 999,
        "REV_AT_EPOCH": 22048,
        "BSTAR": 0,
        "MEAN_MOTION_DOT": 3.1e-07,
        "MEAN_MOTION_DDOT": 0
    },
    {
        "OBJECT_NAME": "NAVSTAR 13 (USA 35)",
        "OBJECT_ID": "1989-013A",
        "EPOCH": "2025-03-08T13:39:52.927776",
        "MEAN_MOTION": 1.85325383,
        "ECCENTRICITY": 0.0042746,
        "INCLINATION": 54.7386,
        "RA_OF_ASC_NODE": 110.3348,
        "ARG_OF_PERICENTER": 239.7591,
        "MEAN_ANOMALY": 176.6936,
        "EPHEMERIS_TYPE": 0,
        "CLASSIFICATION_TYPE": "U",
        "NORAD_CAT_ID": 19802,
        "ELEMENT_SET_NO": 999,
        "REV_AT_EPOCH": 24964,
        "BSTAR": 0,
        "MEAN_MOTION_DOT": -6e-08,
        "MEAN_MOTION_DDOT": 0
    },
    {
        "OBJECT_NAME": "NAVSTAR 14 (USA 38)",
        "OBJECT_ID": "1989-044A",
        "EPOCH": "2025-03-10T05:11:46.279104",
        "MEAN_MOTION": 1.88858502,
        "ECCENTRICITY": 0.0024561,
        "INCLINATION": 53.5718,
        "RA_OF_ASC_NODE": 256.5761,
        "ARG_OF_PERICENTER": 198.7196,
        "MEAN_ANOMALY": 299.124,
        "EPHEMERIS_TYPE": 0,
        "CLASSIFICATION_TYPE": "U",
        "NORAD_CAT_ID": 20061,
        "ELEMENT_SET_NO": 999,
        "REV_AT_EPOCH": 25302,
        "BSTAR": 0,
        "MEAN_MOTION_DOT": 2.3e-07,
        "MEAN_MOTION_DDOT": 0
    },
    {
        "OBJECT_NAME": "NAVSTAR 15 (USA 42)",
        "OBJECT_ID": "1989-064A",
        "EPOCH": "2025-03-06T09:30:23.257728",
        "MEAN_MOTION": 1.86087986,
        "ECCENTRICITY": 0.0012452,
        "INCLINATION": 54.6502,
        "RA_OF_ASC_NODE": 105.351,
        "ARG_OF_PERICENTER": 310.5644,
        "MEAN_ANOMALY": 40.1446,
        "EPHEMERIS_TYPE": 0,
        "CLASSIFICATION_TYPE": "U",
        "NORAD_CAT_ID": 20185,
        "ELEMENT_SET_NO": 999,
        "REV_AT_EPOCH": 24749,
        "BSTAR": 0,
        "MEAN_MOTION_DOT": -1.2e-07,
        "MEAN_MOTION_DDOT": 0
    }
]